0 FENGYUN 1C DEB
1 32212U 99025CVJ 13287.23263503  .00000728  00000-0  26629-3 0  4754
2 32212 099.5688 195.9923 0157920 213.2103 300.2240 14.29864957324545
0 FENGYUN 1C DEB
1 32212U 99025CVJ 13289.53667017  .00000762  00000-0  27774-3 0  4768
2 32212 099.5688 198.5239 0157993 206.6172 280.3167 14.29871199324863
0 FENGYUN 1C DEB
1 32212U 99025CVJ 13292.54556948  .00000872  00000-0  31496-3 0  4772
2 32212 099.5686 201.8303 0158131 198.0165 288.7742 14.29875914325290
0 FENGYUN 1C DEB
1 32212U 99025CVJ 13294.98233976  .00000974  00000-0  34941-3 0  4787
2 32212 099.5686 204.5077 0158195 191.0394 232.2216 14.29880523325646
